<?xml version="1.0" encoding="UTF-8"?>
<kml xmlns="http://www.opengis.net/kml/2.2"><Document>
<name>Islandia 2026 — corregido</name>
<Style id="sAeropuerto"><IconStyle><color>ff1427A5</color><scale>1.1</scale><Icon><href>https://www.gstatic.com/mapspro/images/stock/503-wht-blank_maps.png</href></Icon></IconStyle><LabelStyle><scale>0.9</scale></LabelStyle></Style>
<Style id="sCiudad"><IconStyle><color>ffD18802</color><scale>1.1</scale><Icon><href>https://www.gstatic.com/mapspro/images/stock/503-wht-blank_maps.png</href></Icon></IconStyle><LabelStyle><scale>0.9</scale></LabelStyle></Style>
<Style id="sInterés"><IconStyle><color>ff589D0F</color><scale>1.1</scale><Icon><href>https://www.gstatic.com/mapspro/images/stock/503-wht-blank_maps.png</href></Icon></IconStyle><LabelStyle><scale>0.9</scale></LabelStyle></Style>
<Style id="sOpcional"><IconStyle><color>ff25A8F9</color><scale>1.1</scale><Icon><href>https://www.gstatic.com/mapspro/images/stock/503-wht-blank_maps.png</href></Icon></IconStyle><LabelStyle><scale>0.9</scale></LabelStyle></Style>
<Style id="sDormir"><IconStyle><color>ffB73A67</color><scale>1.1</scale><Icon><href>https://www.gstatic.com/mapspro/images/stock/503-wht-blank_maps.png</href></Icon></IconStyle><LabelStyle><scale>0.9</scale></LabelStyle></Style>
<Style id="sInicio"><IconStyle><color>ff757575</color><scale>1.1</scale><Icon><href>https://www.gstatic.com/mapspro/images/stock/503-wht-blank_maps.png</href></Icon></IconStyle><LabelStyle><scale>0.9</scale></LabelStyle></Style>
<Folder><name>Día 0 · 30 sep · Llegada 06:20, recorrido tranquilo por la ciudad</name>
<Placemark><name>Aeropuerto Internacional de Keflavík</name><description><![CDATA[Día 0 (30 sep) · orden 1<br>Categoría: Aeropuerto<br>Dormir: Reikiavik<br>Notas: Llegada 06:20]]></description><styleUrl>#sAeropuerto</styleUrl><Point><coordinates>-22.6266959,63.9850119,0</coordinates></Point></Placemark>
<Placemark><name>Reikiavik</name><description><![CDATA[Día 0 (30 sep) · orden 2<br>Categoría: Ciudad<br>Dormir: Reikiavik<br>Notas: Día ligero de adaptación]]></description><styleUrl>#sCiudad</styleUrl><Point><coordinates>-21.9422367,64.145981,0</coordinates></Point></Placemark>
<Placemark><name>Hallgrímskirkja</name><description><![CDATA[Día 0 (30 sep) · orden 3<br>Categoría: Interés<br>Dormir: Reikiavik]]></description><styleUrl>#sInterés</styleUrl><Point><coordinates>-21.9267103,64.1417951,0</coordinates></Point></Placemark>
<Placemark><name>Harpa</name><description><![CDATA[Día 0 (30 sep) · orden 4<br>Categoría: Interés<br>Dormir: Reikiavik]]></description><styleUrl>#sInterés</styleUrl><Point><coordinates>-21.9323,64.1505,0</coordinates></Point></Placemark>
<Placemark><name>Sun Voyager</name><description><![CDATA[Día 0 (30 sep) · orden 5<br>Categoría: Interés<br>Dormir: Reikiavik]]></description><styleUrl>#sInterés</styleUrl><Point><coordinates>-21.9222615,64.147607,0</coordinates></Point></Placemark>
<Placemark><name>Ruta día 0</name><LineString><tessellate>1</tessellate><coordinates>-22.6266959,63.9850119,0 -21.9422367,64.145981,0 -21.9267103,64.1417951,0 -21.9323,64.1505,0 -21.9222615,64.147607,0</coordinates></LineString></Placemark>
</Folder>
<Folder><name>Día 1 · 1 oct · Península de Snæfellsnes</name>
<Placemark><name>Reikiavik</name><description><![CDATA[Día 1 (1 oct) · orden 1<br>Categoría: Inicio<br>Dormir: Grundarfjörður]]></description><styleUrl>#sInicio</styleUrl><Point><coordinates>-21.9422367,64.145981,0</coordinates></Point></Placemark>
<Placemark><name>Búðakirkja</name><description><![CDATA[Día 1 (1 oct) · orden 2<br>Categoría: Interés<br>Dormir: Grundarfjörður<br>Notas: Iglesia negra]]></description><styleUrl>#sInterés</styleUrl><Point><coordinates>-23.3840222,64.821663,0</coordinates></Point></Placemark>
<Placemark><name>Arnarstapi</name><description><![CDATA[Día 1 (1 oct) · orden 3<br>Categoría: Interés<br>Dormir: Grundarfjörður<br>Notas: Acantilados]]></description><styleUrl>#sInterés</styleUrl><Point><coordinates>-23.628085,64.766727,0</coordinates></Point></Placemark>
<Placemark><name>Djúpalónssandur</name><description><![CDATA[Día 1 (1 oct) · orden 4<br>Categoría: Interés<br>Dormir: Grundarfjörður]]></description><styleUrl>#sInterés</styleUrl><Point><coordinates>-23.9032179,64.7520959,0</coordinates></Point></Placemark>
<Placemark><name>Kirkjufell</name><description><![CDATA[Día 1 (1 oct) · orden 5<br>Categoría: Interés<br>Dormir: Grundarfjörður<br>Notas: Ideal al atardecer/auroras]]></description><styleUrl>#sInterés</styleUrl><Point><coordinates>-23.3074783,64.9399465,0</coordinates></Point></Placemark>
<Placemark><name>Grundarfjörður</name><description><![CDATA[Día 1 (1 oct) · orden 6<br>Categoría: Dormir<br>Dormir: Grundarfjörður]]></description><styleUrl>#sDormir</styleUrl><Point><coordinates>-23.2592976,64.9250284,0</coordinates></Point></Placemark>
<Placemark><name>Ruta día 1</name><LineString><tessellate>1</tessellate><coordinates>-21.9422367,64.145981,0 -23.3840222,64.821663,0 -23.628085,64.766727,0 -23.9032179,64.7520959,0 -23.3074783,64.9399465,0 -23.2592976,64.9250284,0</coordinates></LineString></Placemark>
</Folder>
<Folder><name>Día 2 · 2 oct · Transición hacia el norte</name>
<Placemark><name>Grundarfjörður</name><description><![CDATA[Día 2 (2 oct) · orden 1<br>Categoría: Inicio<br>Dormir: Hvammstangi / Laugarbakki]]></description><styleUrl>#sInicio</styleUrl><Point><coordinates>-23.2592976,64.9250284,0</coordinates></Point></Placemark>
<Placemark><name>Stykkishólmur</name><description><![CDATA[Día 2 (2 oct) · orden 2<br>Categoría: Interés<br>Dormir: Hvammstangi / Laugarbakki]]></description><styleUrl>#sInterés</styleUrl><Point><coordinates>-22.7302954,65.0742584,0</coordinates></Point></Placemark>
<Placemark><name>Kolugljúfur</name><description><![CDATA[Día 2 (2 oct) · orden 3<br>Categoría: Interés<br>Dormir: Hvammstangi / Laugarbakki]]></description><styleUrl>#sInterés</styleUrl><Point><coordinates>-20.570097,65.3327751,0</coordinates></Point></Placemark>
<Placemark><name>Hvammstangi</name><description><![CDATA[Día 2 (2 oct) · orden 4<br>Categoría: Dormir<br>Dormir: Hvammstangi / Laugarbakki]]></description><styleUrl>#sDormir</styleUrl><Point><coordinates>-20.9440293,65.3969593,0</coordinates></Point></Placemark>
<Placemark><name>Ruta día 2</name><LineString><tessellate>1</tessellate><coordinates>-23.2592976,64.9250284,0 -22.7302954,65.0742584,0 -20.570097,65.3327751,0 -20.9440293,65.3969593,0</coordinates></LineString></Placemark>
</Folder>
<Folder><name>Día 3 · 3 oct · Tröllaskagi y Siglufjörður</name>
<Placemark><name>Hvammstangi</name><description><![CDATA[Día 3 (3 oct) · orden 1<br>Categoría: Inicio<br>Dormir: Akureyri]]></description><styleUrl>#sInicio</styleUrl><Point><coordinates>-20.9440293,65.3969593,0</coordinates></Point></Placemark>
<Placemark><name>Sauðárkrókur</name><description><![CDATA[Día 3 (3 oct) · orden 2<br>Categoría: Interés<br>Dormir: Akureyri]]></description><styleUrl>#sInterés</styleUrl><Point><coordinates>-19.6385795,65.7443213,0</coordinates></Point></Placemark>
<Placemark><name>Siglufjörður</name><description><![CDATA[Día 3 (3 oct) · orden 3<br>Categoría: Interés<br>Dormir: Akureyri]]></description><styleUrl>#sInterés</styleUrl><Point><coordinates>-18.9096279,66.1504928,0</coordinates></Point></Placemark>
<Placemark><name>Akureyri</name><description><![CDATA[Día 3 (3 oct) · orden 4<br>Categoría: Dormir<br>Dormir: Akureyri]]></description><styleUrl>#sDormir</styleUrl><Point><coordinates>-18.1121756,65.6839036,0</coordinates></Point></Placemark>
<Placemark><name>Ruta día 3</name><LineString><tessellate>1</tessellate><coordinates>-20.9440293,65.3969593,0 -19.6385795,65.7443213,0 -18.9096279,66.1504928,0 -18.1121756,65.6839036,0</coordinates></LineString></Placemark>
</Folder>
<Folder><name>Día 4 · 4 oct · Akureyri, Goðafoss y Mývatn</name>
<Placemark><name>Akureyri</name><description><![CDATA[Día 4 (4 oct) · orden 1<br>Categoría: Inicio<br>Dormir: Mývatn<br>Notas: Mañana en la ciudad]]></description><styleUrl>#sInicio</styleUrl><Point><coordinates>-18.1121756,65.6839036,0</coordinates></Point></Placemark>
<Placemark><name>Goðafoss</name><description><![CDATA[Día 4 (4 oct) · orden 2<br>Categoría: Interés<br>Dormir: Mývatn]]></description><styleUrl>#sInterés</styleUrl><Point><coordinates>-17.550624,65.6828162,0</coordinates></Point></Placemark>
<Placemark><name>Skútustaðagígar</name><description><![CDATA[Día 4 (4 oct) · orden 3<br>Categoría: Interés<br>Dormir: Mývatn]]></description><styleUrl>#sInterés</styleUrl><Point><coordinates>-17.033733,65.5713765,0</coordinates></Point></Placemark>
<Placemark><name>Dimmuborgir</name><description><![CDATA[Día 4 (4 oct) · orden 4<br>Categoría: Interés<br>Dormir: Mývatn]]></description><styleUrl>#sInterés</styleUrl><Point><coordinates>-16.9079361,65.5880548,0</coordinates></Point></Placemark>
<Placemark><name>Mývatn</name><description><![CDATA[Día 4 (4 oct) · orden 5<br>Categoría: Dormir<br>Dormir: Mývatn]]></description><styleUrl>#sDormir</styleUrl><Point><coordinates>-17.0057229,65.6331164,0</coordinates></Point></Placemark>
<Placemark><name>Ruta día 4</name><LineString><tessellate>1</tessellate><coordinates>-18.1121756,65.6839036,0 -17.550624,65.6828162,0 -17.033733,65.5713765,0 -16.9079361,65.5880548,0 -17.0057229,65.6331164,0</coordinates></LineString></Placemark>
</Folder>
<Folder><name>Día 5 · 5 oct · Diamond Circle / día flexible</name>
<Placemark><name>Mývatn</name><description><![CDATA[Día 5 (5 oct) · orden 1<br>Categoría: Inicio<br>Dormir: Mývatn]]></description><styleUrl>#sInicio</styleUrl><Point><coordinates>-17.0057229,65.6331164,0</coordinates></Point></Placemark>
<Placemark><name>Hverir</name><description><![CDATA[Día 5 (5 oct) · orden 2<br>Categoría: Interés<br>Dormir: Mývatn]]></description><styleUrl>#sInterés</styleUrl><Point><coordinates>-16.809182,65.6411434,0</coordinates></Point></Placemark>
<Placemark><name>Krafla / Víti</name><description><![CDATA[Día 5 (5 oct) · orden 3<br>Categoría: Opcional<br>Dormir: Mývatn<br>Notas: Solo si el acceso está abierto]]></description><styleUrl>#sOpcional</styleUrl><Point><coordinates>-16.7561,65.716,0</coordinates></Point></Placemark>
<Placemark><name>Dettifoss</name><description><![CDATA[Día 5 (5 oct) · orden 4<br>Categoría: Opcional<br>Dormir: Mývatn<br>Notas: Según carretera y clima]]></description><styleUrl>#sOpcional</styleUrl><Point><coordinates>-16.3844911,65.8143509,0</coordinates></Point></Placemark>
<Placemark><name>Ásbyrgi</name><description><![CDATA[Día 5 (5 oct) · orden 5<br>Categoría: Opcional<br>Dormir: Mývatn]]></description><styleUrl>#sOpcional</styleUrl><Point><coordinates>-16.5047111,66.0123752,0</coordinates></Point></Placemark>
<Placemark><name>Húsavík</name><description><![CDATA[Día 5 (5 oct) · orden 6<br>Categoría: Opcional<br>Dormir: Mývatn]]></description><styleUrl>#sOpcional</styleUrl><Point><coordinates>-17.3410402,66.0433168,0</coordinates></Point></Placemark>
<Placemark><name>Mývatn</name><description><![CDATA[Día 5 (5 oct) · orden 7<br>Categoría: Dormir<br>Dormir: Mývatn]]></description><styleUrl>#sDormir</styleUrl><Point><coordinates>-17.0057229,65.6331164,0</coordinates></Point></Placemark>
<Placemark><name>Ruta día 5</name><LineString><tessellate>1</tessellate><coordinates>-17.0057229,65.6331164,0 -16.809182,65.6411434,0 -16.7561,65.716,0 -16.3844911,65.8143509,0 -16.5047111,66.0123752,0 -17.3410402,66.0433168,0 -17.0057229,65.6331164,0</coordinates></LineString></Placemark>
</Folder>
<Folder><name>Día 6 · 6 oct · Noreste y Möðrudalur</name>
<Placemark><name>Mývatn</name><description><![CDATA[Día 6 (6 oct) · orden 1<br>Categoría: Inicio<br>Dormir: Egilsstaðir]]></description><styleUrl>#sInicio</styleUrl><Point><coordinates>-17.0057229,65.6331164,0</coordinates></Point></Placemark>
<Placemark><name>Möðrudalur</name><description><![CDATA[Día 6 (6 oct) · orden 2<br>Categoría: Interés<br>Dormir: Egilsstaðir]]></description><styleUrl>#sInterés</styleUrl><Point><coordinates>-15.8813275,65.3746014,0</coordinates></Point></Placemark>
<Placemark><name>Vök Baths</name><description><![CDATA[Día 6 (6 oct) · orden 3<br>Categoría: Opcional<br>Dormir: Egilsstaðir]]></description><styleUrl>#sOpcional</styleUrl><Point><coordinates>-14.447475,65.3030657,0</coordinates></Point></Placemark>
<Placemark><name>Egilsstaðir</name><description><![CDATA[Día 6 (6 oct) · orden 4<br>Categoría: Dormir<br>Dormir: Egilsstaðir]]></description><styleUrl>#sDormir</styleUrl><Point><coordinates>-14.4035258,65.2620412,0</coordinates></Point></Placemark>
<Placemark><name>Ruta día 6</name><LineString><tessellate>1</tessellate><coordinates>-17.0057229,65.6331164,0 -15.8813275,65.3746014,0 -14.447475,65.3030657,0 -14.4035258,65.2620412,0</coordinates></LineString></Placemark>
</Folder>
<Folder><name>Día 7 · 7 oct · Fiordos del Este</name>
<Placemark><name>Egilsstaðir</name><description><![CDATA[Día 7 (7 oct) · orden 1<br>Categoría: Inicio<br>Dormir: Höfn]]></description><styleUrl>#sInicio</styleUrl><Point><coordinates>-14.4035258,65.2620412,0</coordinates></Point></Placemark>
<Placemark><name>Reyðarfjörður</name><description><![CDATA[Día 7 (7 oct) · orden 2<br>Categoría: Interés<br>Dormir: Höfn]]></description><styleUrl>#sInterés</styleUrl><Point><coordinates>-14.2084678,65.0340671,0</coordinates></Point></Placemark>
<Placemark><name>Fáskrúðsfjörður</name><description><![CDATA[Día 7 (7 oct) · orden 3<br>Categoría: Interés<br>Dormir: Höfn]]></description><styleUrl>#sInterés</styleUrl><Point><coordinates>-14.0084454,64.9299691,0</coordinates></Point></Placemark>
<Placemark><name>Djúpivogur</name><description><![CDATA[Día 7 (7 oct) · orden 4<br>Categoría: Interés<br>Dormir: Höfn]]></description><styleUrl>#sInterés</styleUrl><Point><coordinates>-14.2775558,64.6430303,0</coordinates></Point></Placemark>
<Placemark><name>Vestrahorn</name><description><![CDATA[Día 7 (7 oct) · orden 5<br>Categoría: Opcional<br>Dormir: Höfn]]></description><styleUrl>#sOpcional</styleUrl><Point><coordinates>-14.94975,64.27605,0</coordinates></Point></Placemark>
<Placemark><name>Höfn</name><description><![CDATA[Día 7 (7 oct) · orden 6<br>Categoría: Dormir<br>Dormir: Höfn]]></description><styleUrl>#sDormir</styleUrl><Point><coordinates>-15.2080441,64.2532647,0</coordinates></Point></Placemark>
<Placemark><name>Ruta día 7</name><LineString><tessellate>1</tessellate><coordinates>-14.4035258,65.2620412,0 -14.2084678,65.0340671,0 -14.0084454,64.9299691,0 -14.2775558,64.6430303,0 -14.94975,64.27605,0 -15.2080441,64.2532647,0</coordinates></LineString></Placemark>
</Folder>
<Folder><name>Día 8 · 8 oct · Jökulsárlón y Diamond Beach</name>
<Placemark><name>Höfn</name><description><![CDATA[Día 8 (8 oct) · orden 1<br>Categoría: Inicio<br>Dormir: Skaftafell / Kirkjubæjarklaustur]]></description><styleUrl>#sInicio</styleUrl><Point><coordinates>-15.2080441,64.2532647,0</coordinates></Point></Placemark>
<Placemark><name>Jökulsárlón</name><description><![CDATA[Día 8 (8 oct) · orden 2<br>Categoría: Interés<br>Dormir: Skaftafell / Kirkjubæjarklaustur]]></description><styleUrl>#sInterés</styleUrl><Point><coordinates>-16.2274213,64.0783208,0</coordinates></Point></Placemark>
<Placemark><name>Diamond Beach</name><description><![CDATA[Día 8 (8 oct) · orden 3<br>Categoría: Interés<br>Dormir: Skaftafell / Kirkjubæjarklaustur]]></description><styleUrl>#sInterés</styleUrl><Point><coordinates>-16.178248,64.0431419,0</coordinates></Point></Placemark>
<Placemark><name>Fjallsárlón</name><description><![CDATA[Día 8 (8 oct) · orden 4<br>Categoría: Interés<br>Dormir: Skaftafell / Kirkjubæjarklaustur]]></description><styleUrl>#sInterés</styleUrl><Point><coordinates>-16.3977875,64.0228952,0</coordinates></Point></Placemark>
<Placemark><name>Skaftafell</name><description><![CDATA[Día 8 (8 oct) · orden 5<br>Categoría: Dormir<br>Dormir: Skaftafell / Kirkjubæjarklaustur]]></description><styleUrl>#sDormir</styleUrl><Point><coordinates>-16.966458,64.0164548,0</coordinates></Point></Placemark>
<Placemark><name>Ruta día 8</name><LineString><tessellate>1</tessellate><coordinates>-15.2080441,64.2532647,0 -16.2274213,64.0783208,0 -16.178248,64.0431419,0 -16.3977875,64.0228952,0 -16.966458,64.0164548,0</coordinates></LineString></Placemark>
</Folder>
<Folder><name>Día 9 · 9 oct · Costa sur</name>
<Placemark><name>Skaftafell</name><description><![CDATA[Día 9 (9 oct) · orden 1<br>Categoría: Inicio<br>Dormir: Vík]]></description><styleUrl>#sInicio</styleUrl><Point><coordinates>-16.966458,64.0164548,0</coordinates></Point></Placemark>
<Placemark><name>Fjaðrárgljúfur</name><description><![CDATA[Día 9 (9 oct) · orden 2<br>Categoría: Interés<br>Dormir: Vík]]></description><styleUrl>#sInterés</styleUrl><Point><coordinates>-18.1737214,63.7725995,0</coordinates></Point></Placemark>
<Placemark><name>Eldhraun</name><description><![CDATA[Día 9 (9 oct) · orden 3<br>Categoría: Interés<br>Dormir: Vík]]></description><styleUrl>#sInterés</styleUrl><Point><coordinates>-18.1319817,63.6863997,0</coordinates></Point></Placemark>
<Placemark><name>Reynisfjara</name><description><![CDATA[Día 9 (9 oct) · orden 4<br>Categoría: Interés<br>Dormir: Vík<br>Notas: Atención a oleaje]]></description><styleUrl>#sInterés</styleUrl><Point><coordinates>-19.0587987,63.4044262,0</coordinates></Point></Placemark>
<Placemark><name>Dyrhólaey</name><description><![CDATA[Día 9 (9 oct) · orden 5<br>Categoría: Interés<br>Dormir: Vík]]></description><styleUrl>#sInterés</styleUrl><Point><coordinates>-19.1266314,63.3988334,0</coordinates></Point></Placemark>
<Placemark><name>Vík</name><description><![CDATA[Día 9 (9 oct) · orden 6<br>Categoría: Dormir<br>Dormir: Vík]]></description><styleUrl>#sDormir</styleUrl><Point><coordinates>-19.0054737,63.4188166,0</coordinates></Point></Placemark>
<Placemark><name>Ruta día 9</name><LineString><tessellate>1</tessellate><coordinates>-16.966458,64.0164548,0 -18.1737214,63.7725995,0 -18.1319817,63.6863997,0 -19.0587987,63.4044262,0 -19.1266314,63.3988334,0 -19.0054737,63.4188166,0</coordinates></LineString></Placemark>
</Folder>
<Folder><name>Día 10 · 10 oct · Cascadas del sur</name>
<Placemark><name>Vík</name><description><![CDATA[Día 10 (10 oct) · orden 1<br>Categoría: Inicio<br>Dormir: Selfoss / Flúðir]]></description><styleUrl>#sInicio</styleUrl><Point><coordinates>-19.0054737,63.4188166,0</coordinates></Point></Placemark>
<Placemark><name>Skógafoss</name><description><![CDATA[Día 10 (10 oct) · orden 2<br>Categoría: Interés<br>Dormir: Selfoss / Flúðir]]></description><styleUrl>#sInterés</styleUrl><Point><coordinates>-19.511292,63.5321038,0</coordinates></Point></Placemark>
<Placemark><name>Kvernufoss</name><description><![CDATA[Día 10 (10 oct) · orden 3<br>Categoría: Interés<br>Dormir: Selfoss / Flúðir]]></description><styleUrl>#sInterés</styleUrl><Point><coordinates>-19.4805098,63.5286852,0</coordinates></Point></Placemark>
<Placemark><name>Seljalandsfoss</name><description><![CDATA[Día 10 (10 oct) · orden 4<br>Categoría: Interés<br>Dormir: Selfoss / Flúðir]]></description><styleUrl>#sInterés</styleUrl><Point><coordinates>-19.9881686,63.6154571,0</coordinates></Point></Placemark>
<Placemark><name>Gljúfrabúi</name><description><![CDATA[Día 10 (10 oct) · orden 5<br>Categoría: Interés<br>Dormir: Selfoss / Flúðir]]></description><styleUrl>#sInterés</styleUrl><Point><coordinates>-19.9863395,63.6207562,0</coordinates></Point></Placemark>
<Placemark><name>Selfoss</name><description><![CDATA[Día 10 (10 oct) · orden 6<br>Categoría: Dormir<br>Dormir: Selfoss / Flúðir]]></description><styleUrl>#sDormir</styleUrl><Point><coordinates>-21.0035319,63.9368093,0</coordinates></Point></Placemark>
<Placemark><name>Ruta día 10</name><LineString><tessellate>1</tessellate><coordinates>-19.0054737,63.4188166,0 -19.511292,63.5321038,0 -19.4805098,63.5286852,0 -19.9881686,63.6154571,0 -19.9863395,63.6207562,0 -21.0035319,63.9368093,0</coordinates></LineString></Placemark>
</Folder>
<Folder><name>Día 11 · 11 oct · Círculo Dorado</name>
<Placemark><name>Selfoss / Flúðir</name><description><![CDATA[Día 11 (11 oct) · orden 1<br>Categoría: Inicio<br>Dormir: Reikiavik]]></description><styleUrl>#sInicio</styleUrl><Point><coordinates>-21.0035319,63.9368093,0</coordinates></Point></Placemark>
<Placemark><name>Gullfoss</name><description><![CDATA[Día 11 (11 oct) · orden 2<br>Categoría: Interés<br>Dormir: Reikiavik]]></description><styleUrl>#sInterés</styleUrl><Point><coordinates>-20.1191026,64.327316,0</coordinates></Point></Placemark>
<Placemark><name>Geysir</name><description><![CDATA[Día 11 (11 oct) · orden 3<br>Categoría: Interés<br>Dormir: Reikiavik]]></description><styleUrl>#sInterés</styleUrl><Point><coordinates>-20.2995104,64.3138382,0</coordinates></Point></Placemark>
<Placemark><name>Þingvellir</name><description><![CDATA[Día 11 (11 oct) · orden 4<br>Categoría: Interés<br>Dormir: Reikiavik]]></description><styleUrl>#sInterés</styleUrl><Point><coordinates>-21.0819412,64.2786082,0</coordinates></Point></Placemark>
<Placemark><name>Reikiavik</name><description><![CDATA[Día 11 (11 oct) · orden 5<br>Categoría: Dormir<br>Dormir: Reikiavik]]></description><styleUrl>#sDormir</styleUrl><Point><coordinates>-21.9422367,64.145981,0</coordinates></Point></Placemark>
<Placemark><name>Ruta día 11</name><LineString><tessellate>1</tessellate><coordinates>-21.0035319,63.9368093,0 -20.1191026,64.327316,0 -20.2995104,64.3138382,0 -21.0819412,64.2786082,0 -21.9422367,64.145981,0</coordinates></LineString></Placemark>
</Folder>
<Folder><name>Día 12 · 12 oct · Día completo en la capital</name>
<Placemark><name>Reikiavik</name><description><![CDATA[Día 12 (12 oct) · orden 1<br>Categoría: Ciudad<br>Dormir: Reikiavik<br>Notas: Día completo]]></description><styleUrl>#sCiudad</styleUrl><Point><coordinates>-21.9422367,64.145981,0</coordinates></Point></Placemark>
<Placemark><name>Perlan</name><description><![CDATA[Día 12 (12 oct) · orden 2<br>Categoría: Opcional<br>Dormir: Reikiavik]]></description><styleUrl>#sOpcional</styleUrl><Point><coordinates>-21.9190279,64.1292462,0</coordinates></Point></Placemark>
<Placemark><name>Sky Lagoon</name><description><![CDATA[Día 12 (12 oct) · orden 3<br>Categoría: Opcional<br>Dormir: Reikiavik]]></description><styleUrl>#sOpcional</styleUrl><Point><coordinates>-21.9464351,64.1164654,0</coordinates></Point></Placemark>
<Placemark><name>Ruta día 12</name><LineString><tessellate>1</tessellate><coordinates>-21.9422367,64.145981,0 -21.9190279,64.1292462,0 -21.9464351,64.1164654,0</coordinates></LineString></Placemark>
</Folder>
<Folder><name>Día 13 · 13 oct · Salida hacia el aeropuerto 12:00–12:30</name>
<Placemark><name>Reikiavik</name><description><![CDATA[Día 13 (13 oct) · orden 1<br>Categoría: Inicio<br>Dormir: Vuelo]]></description><styleUrl>#sInicio</styleUrl><Point><coordinates>-21.9422367,64.145981,0</coordinates></Point></Placemark>
<Placemark><name>Aeropuerto Internacional de Keflavík</name><description><![CDATA[Día 13 (13 oct) · orden 2<br>Categoría: Aeropuerto<br>Dormir: Vuelo<br>Notas: Vuelo 17:05]]></description><styleUrl>#sAeropuerto</styleUrl><Point><coordinates>-22.6266959,63.9850119,0</coordinates></Point></Placemark>
<Placemark><name>Ruta día 13</name><LineString><tessellate>1</tessellate><coordinates>-21.9422367,64.145981,0 -22.6266959,63.9850119,0</coordinates></LineString></Placemark>
</Folder>
<Folder><name>Tiendas y provisiones</name>
<Placemark><name>Kjörbúðin Grundarfjörður</name><description><![CDATA[Día recomendado: Día 2 (1 oct)<br>Ubicación: Grundargata 38, 350 Grundarfjörður, Iceland<br>Tipo: Supermercado local<br>Tipo de compra: REPOSICIÓN<br>Prioridad: Media<br>Qué comprar: Reposición de agua, fruta, lácteos, pan y snacks.<br>Horario: L–V 09:00–18:00; sáb 10:00–17:00; dom 12:00–17:00<br>Nota práctica: Útil al terminar Snæfellsnes; no depender de llegar tarde porque cierra antes que las cadenas grandes.<br>Abrir en Google Maps: https://www.google.com/maps/search/?api=1&amp;query=Kjorbudin+Grundargata+38+Grundarfjordur]]></description><Point><coordinates>-23.260079,64.9255197,0</coordinates></Point></Placemark>
<Placemark><name>Kaupfélag Vestur-Húnvetninga</name><description><![CDATA[Día recomendado: Día 3 (2 oct)<br>Ubicación: Strandgata 1, 530 Hvammstangi, Iceland<br>Tipo: Supermercado local<br>Tipo de compra: REPOSICIÓN<br>Prioridad: Media<br>Qué comprar: Compra corta para el tramo hacia Tröllaskagi/Akureyri.<br>Horario: Verificar horario cercano a la fecha<br>Nota práctica: Es el supermercado principal de Hvammstangi; buena parada si duermen en Hvammstangi/Laugarbakki.<br>Abrir en Google Maps: https://www.google.com/maps/search/?api=1&amp;query=Kaupfelag+Vestur-Hunvetninga+Strandgata+1+Hvammstangi]]></description><Point><coordinates>-20.9467139,65.3957491,0</coordinates></Point></Placemark>
<Placemark><name>Krónan Akureyri</name><description><![CDATA[Día recomendado: Día 4 (3 oct)<br>Ubicación: Tryggvabraut 8, 600 Akureyri, Iceland<br>Tipo: Supermercado<br>Tipo de compra: COMPRA GRANDE<br>Prioridad: Alta<br>Qué comprar: Segunda compra grande: reponer comida para Mývatn y el este.<br>Horario: 08:00–21:00 todos los días<br>Nota práctica: Uno de los mejores puntos de abastecimiento antes de entrar a zonas menos pobladas.<br>Abrir en Google Maps: https://www.google.com/maps/search/?api=1&amp;query=Kronan+Tryggvabraut+8+Akureyri]]></description><Point><coordinates>-18.0987636,65.6891277,0</coordinates></Point></Placemark>
<Placemark><name>Krambúðin Reykjahlíð</name><description><![CDATA[Día recomendado: Día 5/6 (4–5 oct)<br>Ubicación: Reykjahlíð Gamlibær, 660 Reykjahlíð, Iceland<br>Tipo: Conveniencia / abarrotes<br>Tipo de compra: EMERGENCIA / REPOSICIÓN<br>Prioridad: Alta<br>Qué comprar: Snacks, bebidas, básicos y faltantes durante las dos noches en Mývatn.<br>Horario: 09:00–21:00 todos los días<br>Nota práctica: Es la opción práctica tipo &#x27;Oxxo&#x27; de esta zona; no la usaría para la compra grande si Akureyri queda antes.<br>Abrir en Google Maps: https://www.google.com/maps/search/?api=1&amp;query=Krambudin+Reykjahlid+Gamlibaer]]></description><Point><coordinates>-16.913687,65.645045,0</coordinates></Point></Placemark>
<Placemark><name>Nettó Egilsstaðir</name><description><![CDATA[Día recomendado: Día 7 (6 oct)<br>Ubicación: Kaupvangur 6, 700 Egilsstaðir, Iceland<br>Tipo: Supermercado<br>Tipo de compra: COMPRA GRANDE<br>Prioridad: Alta<br>Qué comprar: Reponer comida, bebidas y desayunos antes de los fiordos del este.<br>Horario: 08:00–20:00 todos los días<br>Nota práctica: Muy buen punto para reiniciar provisiones después del tramo remoto desde Mývatn.<br>Abrir en Google Maps: https://www.google.com/maps/search/?api=1&amp;query=Netto+Kaupvangur+6+Egilsstadir]]></description><Point><coordinates>-14.4065256,65.2602881,0</coordinates></Point></Placemark>
<Placemark><name>Krónan Reyðarfjörður</name><description><![CDATA[Día recomendado: Día 8 (7 oct)<br>Ubicación: Hafnargata 2, 730 Reyðarfjörður, Iceland<br>Tipo: Supermercado<br>Tipo de compra: REPOSICIÓN<br>Prioridad: Media<br>Qué comprar: Parada opcional para reponer en los fiordos del este.<br>Horario: L–V 10:00–19:00; sáb–dom 11:00–17:00<br>Nota práctica: Útil si salen de Egilsstaðir sin compra o si necesitan algo antes de Höfn.<br>Abrir en Google Maps: https://www.google.com/maps/search/?api=1&amp;query=Kronan+Hafnargata+2+Reydarfjordur]]></description><Point><coordinates>-14.2196492,65.0320766,0</coordinates></Point></Placemark>
<Placemark><name>Krónan Vík</name><description><![CDATA[Día recomendado: Día 10 (9 oct)<br>Ubicación: Austurvegur 20, 870 Vík, Iceland<br>Tipo: Supermercado<br>Tipo de compra: REPOSICIÓN<br>Prioridad: Alta<br>Qué comprar: Reponer después del sureste y antes de cascadas/costa sur.<br>Horario: 09:00–21:00 todos los días<br>Nota práctica: Horario amplio y ubicación muy cómoda en la ruta.<br>Abrir en Google Maps: https://www.google.com/maps/search/?api=1&amp;query=Kronan+Austurvegur+20+Vik+Iceland]]></description><Point><coordinates>-18.9996467,63.4173544,0</coordinates></Point></Placemark>
<Placemark><name>Krónan Selfoss</name><description><![CDATA[Día recomendado: Día 11/12 (10–11 oct)<br>Ubicación: Austurvegur 3, 800 Selfoss, Iceland<br>Tipo: Supermercado<br>Tipo de compra: REPOSICIÓN<br>Prioridad: Media<br>Qué comprar: Última reposición antes del Círculo Dorado/Reikiavik.<br>Horario: 08:00–21:00 todos los días<br>Nota práctica: A partir de aquí ya hay mucha más disponibilidad de tiendas y servicios.<br>Abrir en Google Maps: https://www.google.com/maps/search/?api=1&amp;query=Kronan+Austurvegur+3+Selfoss]]></description><Point><coordinates>-21.0013146,63.9379394,0</coordinates></Point></Placemark>
</Folder>
<Folder><name>Combustible y riesgo</name>
<Placemark><name>Inicio del viaje – tanque lleno</name><description><![CDATA[Día / tramo: Día 1 (30 sep)<br>Ubicación: Keflavík International Airport, Iceland<br>Tipo: Inicio<br>Nivel: VERDE<br>Acción recomendada: Salir con tanque lleno<br>Distancia / contexto: Keflavík → Reikiavik<br>Horario / servicio: —<br>Notas: Verificar nivel al recibir el Kia Sportage o similar.]]></description><Point><coordinates>-22.6266959,63.9850119,0</coordinates></Point></Placemark>
<Placemark><name>ÓB Laugarbakki</name><description><![CDATA[Día / tramo: Día 3 (2 oct)<br>Ubicación: Miðfjarðarvegur 4, Laugarbakki, Iceland<br>Tipo: Gasolinera<br>Nivel: VERDE<br>Acción recomendada: Revisar nivel; cargar si ≤ 1/2<br>Distancia / contexto: Hacia Tröllaskagi/Akureyri hay estaciones en Sauðárkrókur, Siglufjörður y Dalvík<br>Horario / servicio: Autoservicio<br>Notas: Buena parada antes de la ruta escénica del norte.]]></description><Point><coordinates>-20.8923724,65.3259727,0</coordinates></Point></Placemark>
<Placemark><name>Olís Akureyri</name><description><![CDATA[Día / tramo: Día 4 (3 oct)<br>Ubicación: Tryggvabraut 1, Akureyri, Iceland<br>Tipo: Gasolinera<br>Nivel: VERDE<br>Acción recomendada: Carga opcional; ideal salir de Akureyri con &gt; 1/2<br>Distancia / contexto: Akureyri → Reykjahlíð/Mývatn: ~83 km<br>Horario / servicio: Estación de servicio<br>Notas: Hay combustible en Mývatn, así que no hace falta forzar una carga aquí.]]></description><Point><coordinates>-18.1001822,65.6893963,0</coordinates></Point></Placemark>
<Placemark><name>N1 Mývatn (Reykjahlíð)</name><description><![CDATA[Día / tramo: Día 5/6 (4–5 oct)<br>Ubicación: Reykjahlíð, 660 Mývatn, Iceland<br>Tipo: Gasolinera<br>Nivel: AMARILLO<br>Acción recomendada: REPOSTAR AQUÍ antes de salir hacia Egilsstaðir; ideal 3/4–lleno<br>Distancia / contexto: Mývatn → Egilsstaðir: ~174 km por carretera<br>Horario / servicio: Autoservicio 24/7<br>Notas: Hay una opción remota en Möðrudalur, pero el plan no depende de ella.]]></description><Point><coordinates>-16.9148622,65.6453023,0</coordinates></Point></Placemark>
<Placemark><name>⚠ Zona de combustible limitado: Mývatn → Egilsstaðir</name><description><![CDATA[Día / tramo: Día 7 (6 oct)<br>Ubicación: Möðrudalur, Iceland<br>Tipo: Zona de precaución<br>Nivel: AMARILLO<br>Acción recomendada: Entrar al tramo con 3/4–lleno; no esperar a la luz de reserva<br>Distancia / contexto: ~174 km entre Mývatn y Egilsstaðir; entorno remoto<br>Horario / servicio: Servicios limitados<br>Notas: Esta es la principal zona de combustible a vigilar en la ruta planeada.]]></description><Point><coordinates>-15.8813275,65.3746014,0</coordinates></Point></Placemark>
<Placemark><name>N1 Egilsstaðir</name><description><![CDATA[Día / tramo: Día 7 (6 oct)<br>Ubicación: N1 Egilsstaðir, Iceland<br>Tipo: Gasolinera<br>Nivel: VERDE<br>Acción recomendada: REPOSTAR si estamos en 1/2 o menos; buen punto para reiniciar el contador<br>Distancia / contexto: Hub principal de combustible del este<br>Horario / servicio: Autoservicio / estación principal<br>Notas: Desde aquí los fiordos del este tienen varias opciones de combustible.]]></description><Point><coordinates>-14.4082439,65.2603656,0</coordinates></Point></Placemark>
<Placemark><name>Olís Reyðarfjörður</name><description><![CDATA[Día / tramo: Día 8 (7 oct)<br>Ubicación: Búðareyri 33, 730 Reyðarfjörður, Iceland<br>Tipo: Gasolinera<br>Nivel: VERDE<br>Acción recomendada: Carga opcional si el nivel bajó a ~1/2<br>Distancia / contexto: Parada intermedia en los fiordos del este<br>Horario / servicio: Gasolina 95 / diésel<br>Notas: Útil para no depender de llegar a Höfn con poco combustible.]]></description><Point><coordinates>-14.2310824,65.033905,0</coordinates></Point></Placemark>
<Placemark><name>N1 Djúpivogur</name><description><![CDATA[Día / tramo: Día 8 (7 oct)<br>Ubicación: Búland 1, 765 Djúpivogur, Iceland<br>Tipo: Gasolinera<br>Nivel: VERDE<br>Acción recomendada: Carga opcional; tomarla si estamos alrededor de 1/2<br>Distancia / contexto: Punto intermedio antes de Höfn<br>Horario / servicio: Gasolinera local<br>Notas: Buen respaldo en la costa este.]]></description><Point><coordinates>-14.2858209,64.6560126,0</coordinates></Point></Placemark>
<Placemark><name>Olís Höfn í Hornafirði</name><description><![CDATA[Día / tramo: Día 8/9 (7–8 oct)<br>Ubicación: Hafnarbraut 45, 780 Höfn, Iceland<br>Tipo: Gasolinera<br>Nivel: AMARILLO<br>Acción recomendada: REPOSTAR AQUÍ antes de continuar al sureste si el tanque está ≤ 2/3<br>Distancia / contexto: Höfn → Kirkjubæjarklaustur: ~186–200 km; existen estaciones de respaldo en el camino<br>Horario / servicio: Estación de servicio<br>Notas: No es zona roja: hay combustible en Nes/Fagurhólsmýri/Freysnes, pero los servicios están más espaciados.]]></description><Point><coordinates>-15.2089562,64.2555288,0</coordinates></Point></Placemark>
<Placemark><name>N1 Fagurhólsmýri</name><description><![CDATA[Día / tramo: Día 9 (8 oct)<br>Ubicación: Fagurhólsmýri, Iceland<br>Tipo: Gasolinera de respaldo<br>Nivel: VERDE<br>Acción recomendada: Usar como respaldo si el consumo fue mayor de lo previsto<br>Distancia / contexto: Entre Höfn y Freysnes/Skaftafell<br>Horario / servicio: Autoservicio 24/7<br>Notas: Punto importante de respaldo en el sureste.]]></description><Point><coordinates>-16.6435143,63.8782311,0</coordinates></Point></Placemark>
<Placemark><name>ÓB Kirkjubæjarklaustur</name><description><![CDATA[Día / tramo: Día 10 (9 oct)<br>Ubicación: Iðjuvellir 1, Kirkjubæjarklaustur, Iceland<br>Tipo: Gasolinera<br>Nivel: VERDE<br>Acción recomendada: Carga opcional según nivel<br>Distancia / contexto: Kirkjubæjarklaustur → Vík es un tramo corto comparado con el sureste<br>Horario / servicio: Autoservicio<br>Notas: A partir de aquí la densidad de servicios aumenta.]]></description><Point><coordinates>-18.0384263,63.7945758,0</coordinates></Point></Placemark>
<Placemark><name>ÓB Vík</name><description><![CDATA[Día / tramo: Día 10/11 (9–10 oct)<br>Ubicación: Austurvegur 16, Vík, Iceland<br>Tipo: Gasolinera<br>Nivel: VERDE<br>Acción recomendada: Carga opcional si ≤ 1/2<br>Distancia / contexto: Vík → Selfoss con múltiples pueblos/servicios intermedios<br>Horario / servicio: Autoservicio<br>Notas: No se considera tramo de riesgo.]]></description><Point><coordinates>-19.0028977,63.4176097,0</coordinates></Point></Placemark>
</Folder>
</Document></kml>