{"type":"FeatureCollection","features":[{"type":"Feature","geometry":{"type":"Point","coordinates":[-22.6266959,63.9850119]},"properties":{"dia":0,"orden":1,"nombre":"Aeropuerto Internacional de Keflavík","categoria":"Aeropuerto","dormir":"Reikiavik","notas":"Llegada 06:20"}},{"type":"Feature","geometry":{"type":"Point","coordinates":[-21.9422367,64.145981]},"properties":{"dia":0,"orden":2,"nombre":"Reikiavik","categoria":"Ciudad","dormir":"Reikiavik","notas":"Día ligero de adaptación"}},{"type":"Feature","geometry":{"type":"Point","coordinates":[-21.9267103,64.1417951]},"properties":{"dia":0,"orden":3,"nombre":"Hallgrímskirkja","categoria":"Interés","dormir":"Reikiavik","notas":null}},{"type":"Feature","geometry":{"type":"Point","coordinates":[-21.9323,64.1505]},"properties":{"dia":0,"orden":4,"nombre":"Harpa","categoria":"Interés","dormir":"Reikiavik","notas":null}},{"type":"Feature","geometry":{"type":"Point","coordinates":[-21.9222615,64.147607]},"properties":{"dia":0,"orden":5,"nombre":"Sun Voyager","categoria":"Interés","dormir":"Reikiavik","notas":null}},{"type":"Feature","geometry":{"type":"Point","coordinates":[-21.9422367,64.145981]},"properties":{"dia":1,"orden":1,"nombre":"Reikiavik","categoria":"Inicio","dormir":"Grundarfjörður","notas":null}},{"type":"Feature","geometry":{"type":"Point","coordinates":[-23.3840222,64.821663]},"properties":{"dia":1,"orden":2,"nombre":"Búðakirkja","categoria":"Interés","dormir":"Grundarfjörður","notas":"Iglesia negra"}},{"type":"Feature","geometry":{"type":"Point","coordinates":[-23.628085,64.766727]},"properties":{"dia":1,"orden":3,"nombre":"Arnarstapi","categoria":"Interés","dormir":"Grundarfjörður","notas":"Acantilados"}},{"type":"Feature","geometry":{"type":"Point","coordinates":[-23.9032179,64.7520959]},"properties":{"dia":1,"orden":4,"nombre":"Djúpalónssandur","categoria":"Interés","dormir":"Grundarfjörður","notas":null}},{"type":"Feature","geometry":{"type":"Point","coordinates":[-23.3074783,64.9399465]},"properties":{"dia":1,"orden":5,"nombre":"Kirkjufell","categoria":"Interés","dormir":"Grundarfjörður","notas":"Ideal al atardecer/auroras"}},{"type":"Feature","geometry":{"type":"Point","coordinates":[-23.2592976,64.9250284]},"properties":{"dia":1,"orden":6,"nombre":"Grundarfjörður","categoria":"Dormir","dormir":"Grundarfjörður","notas":null}},{"type":"Feature","geometry":{"type":"Point","coordinates":[-23.2592976,64.9250284]},"properties":{"dia":2,"orden":1,"nombre":"Grundarfjörður","categoria":"Inicio","dormir":"Hvammstangi / Laugarbakki","notas":null}},{"type":"Feature","geometry":{"type":"Point","coordinates":[-22.7302954,65.0742584]},"properties":{"dia":2,"orden":2,"nombre":"Stykkishólmur","categoria":"Interés","dormir":"Hvammstangi / Laugarbakki","notas":null}},{"type":"Feature","geometry":{"type":"Point","coordinates":[-20.570097,65.3327751]},"properties":{"dia":2,"orden":3,"nombre":"Kolugljúfur","categoria":"Interés","dormir":"Hvammstangi / Laugarbakki","notas":null}},{"type":"Feature","geometry":{"type":"Point","coordinates":[-20.9440293,65.3969593]},"properties":{"dia":2,"orden":4,"nombre":"Hvammstangi","categoria":"Dormir","dormir":"Hvammstangi / Laugarbakki","notas":null}},{"type":"Feature","geometry":{"type":"Point","coordinates":[-20.9440293,65.3969593]},"properties":{"dia":3,"orden":1,"nombre":"Hvammstangi","categoria":"Inicio","dormir":"Akureyri","notas":null}},{"type":"Feature","geometry":{"type":"Point","coordinates":[-19.6385795,65.7443213]},"properties":{"dia":3,"orden":2,"nombre":"Sauðárkrókur","categoria":"Interés","dormir":"Akureyri","notas":null}},{"type":"Feature","geometry":{"type":"Point","coordinates":[-18.9096279,66.1504928]},"properties":{"dia":3,"orden":3,"nombre":"Siglufjörður","categoria":"Interés","dormir":"Akureyri","notas":null}},{"type":"Feature","geometry":{"type":"Point","coordinates":[-18.1121756,65.6839036]},"properties":{"dia":3,"orden":4,"nombre":"Akureyri","categoria":"Dormir","dormir":"Akureyri","notas":null}},{"type":"Feature","geometry":{"type":"Point","coordinates":[-18.1121756,65.6839036]},"properties":{"dia":4,"orden":1,"nombre":"Akureyri","categoria":"Inicio","dormir":"Mývatn","notas":"Mañana en la ciudad"}},{"type":"Feature","geometry":{"type":"Point","coordinates":[-17.550624,65.6828162]},"properties":{"dia":4,"orden":2,"nombre":"Goðafoss","categoria":"Interés","dormir":"Mývatn","notas":null}},{"type":"Feature","geometry":{"type":"Point","coordinates":[-17.033733,65.5713765]},"properties":{"dia":4,"orden":3,"nombre":"Skútustaðagígar","categoria":"Interés","dormir":"Mývatn","notas":null}},{"type":"Feature","geometry":{"type":"Point","coordinates":[-16.9079361,65.5880548]},"properties":{"dia":4,"orden":4,"nombre":"Dimmuborgir","categoria":"Interés","dormir":"Mývatn","notas":null}},{"type":"Feature","geometry":{"type":"Point","coordinates":[-17.0057229,65.6331164]},"properties":{"dia":4,"orden":5,"nombre":"Mývatn","categoria":"Dormir","dormir":"Mývatn","notas":null}},{"type":"Feature","geometry":{"type":"Point","coordinates":[-17.0057229,65.6331164]},"properties":{"dia":5,"orden":1,"nombre":"Mývatn","categoria":"Inicio","dormir":"Mývatn","notas":null}},{"type":"Feature","geometry":{"type":"Point","coordinates":[-16.809182,65.6411434]},"properties":{"dia":5,"orden":2,"nombre":"Hverir","categoria":"Interés","dormir":"Mývatn","notas":null}},{"type":"Feature","geometry":{"type":"Point","coordinates":[-16.7561,65.716]},"properties":{"dia":5,"orden":3,"nombre":"Krafla / Víti","categoria":"Opcional","dormir":"Mývatn","notas":"Solo si el acceso está abierto"}},{"type":"Feature","geometry":{"type":"Point","coordinates":[-16.3844911,65.8143509]},"properties":{"dia":5,"orden":4,"nombre":"Dettifoss","categoria":"Opcional","dormir":"Mývatn","notas":"Según carretera y clima"}},{"type":"Feature","geometry":{"type":"Point","coordinates":[-16.5047111,66.0123752]},"properties":{"dia":5,"orden":5,"nombre":"Ásbyrgi","categoria":"Opcional","dormir":"Mývatn","notas":null}},{"type":"Feature","geometry":{"type":"Point","coordinates":[-17.3410402,66.0433168]},"properties":{"dia":5,"orden":6,"nombre":"Húsavík","categoria":"Opcional","dormir":"Mývatn","notas":null}},{"type":"Feature","geometry":{"type":"Point","coordinates":[-17.0057229,65.6331164]},"properties":{"dia":5,"orden":7,"nombre":"Mývatn","categoria":"Dormir","dormir":"Mývatn","notas":null}},{"type":"Feature","geometry":{"type":"Point","coordinates":[-17.0057229,65.6331164]},"properties":{"dia":6,"orden":1,"nombre":"Mývatn","categoria":"Inicio","dormir":"Egilsstaðir","notas":null}},{"type":"Feature","geometry":{"type":"Point","coordinates":[-15.8813275,65.3746014]},"properties":{"dia":6,"orden":2,"nombre":"Möðrudalur","categoria":"Interés","dormir":"Egilsstaðir","notas":null}},{"type":"Feature","geometry":{"type":"Point","coordinates":[-14.447475,65.3030657]},"properties":{"dia":6,"orden":3,"nombre":"Vök Baths","categoria":"Opcional","dormir":"Egilsstaðir","notas":null}},{"type":"Feature","geometry":{"type":"Point","coordinates":[-14.4035258,65.2620412]},"properties":{"dia":6,"orden":4,"nombre":"Egilsstaðir","categoria":"Dormir","dormir":"Egilsstaðir","notas":null}},{"type":"Feature","geometry":{"type":"Point","coordinates":[-14.4035258,65.2620412]},"properties":{"dia":7,"orden":1,"nombre":"Egilsstaðir","categoria":"Inicio","dormir":"Höfn","notas":null}},{"type":"Feature","geometry":{"type":"Point","coordinates":[-14.2084678,65.0340671]},"properties":{"dia":7,"orden":2,"nombre":"Reyðarfjörður","categoria":"Interés","dormir":"Höfn","notas":null}},{"type":"Feature","geometry":{"type":"Point","coordinates":[-14.0084454,64.9299691]},"properties":{"dia":7,"orden":3,"nombre":"Fáskrúðsfjörður","categoria":"Interés","dormir":"Höfn","notas":null}},{"type":"Feature","geometry":{"type":"Point","coordinates":[-14.2775558,64.6430303]},"properties":{"dia":7,"orden":4,"nombre":"Djúpivogur","categoria":"Interés","dormir":"Höfn","notas":null}},{"type":"Feature","geometry":{"type":"Point","coordinates":[-14.94975,64.27605]},"properties":{"dia":7,"orden":5,"nombre":"Vestrahorn","categoria":"Opcional","dormir":"Höfn","notas":null}},{"type":"Feature","geometry":{"type":"Point","coordinates":[-15.2080441,64.2532647]},"properties":{"dia":7,"orden":6,"nombre":"Höfn","categoria":"Dormir","dormir":"Höfn","notas":null}},{"type":"Feature","geometry":{"type":"Point","coordinates":[-15.2080441,64.2532647]},"properties":{"dia":8,"orden":1,"nombre":"Höfn","categoria":"Inicio","dormir":"Skaftafell / Kirkjubæjarklaustur","notas":null}},{"type":"Feature","geometry":{"type":"Point","coordinates":[-16.2274213,64.0783208]},"properties":{"dia":8,"orden":2,"nombre":"Jökulsárlón","categoria":"Interés","dormir":"Skaftafell / Kirkjubæjarklaustur","notas":null}},{"type":"Feature","geometry":{"type":"Point","coordinates":[-16.178248,64.0431419]},"properties":{"dia":8,"orden":3,"nombre":"Diamond Beach","categoria":"Interés","dormir":"Skaftafell / Kirkjubæjarklaustur","notas":null}},{"type":"Feature","geometry":{"type":"Point","coordinates":[-16.3977875,64.0228952]},"properties":{"dia":8,"orden":4,"nombre":"Fjallsárlón","categoria":"Interés","dormir":"Skaftafell / Kirkjubæjarklaustur","notas":null}},{"type":"Feature","geometry":{"type":"Point","coordinates":[-16.966458,64.0164548]},"properties":{"dia":8,"orden":5,"nombre":"Skaftafell","categoria":"Dormir","dormir":"Skaftafell / Kirkjubæjarklaustur","notas":null}},{"type":"Feature","geometry":{"type":"Point","coordinates":[-16.966458,64.0164548]},"properties":{"dia":9,"orden":1,"nombre":"Skaftafell","categoria":"Inicio","dormir":"Vík","notas":null}},{"type":"Feature","geometry":{"type":"Point","coordinates":[-18.1737214,63.7725995]},"properties":{"dia":9,"orden":2,"nombre":"Fjaðrárgljúfur","categoria":"Interés","dormir":"Vík","notas":null}},{"type":"Feature","geometry":{"type":"Point","coordinates":[-18.1319817,63.6863997]},"properties":{"dia":9,"orden":3,"nombre":"Eldhraun","categoria":"Interés","dormir":"Vík","notas":null}},{"type":"Feature","geometry":{"type":"Point","coordinates":[-19.0587987,63.4044262]},"properties":{"dia":9,"orden":4,"nombre":"Reynisfjara","categoria":"Interés","dormir":"Vík","notas":"Atención a oleaje"}},{"type":"Feature","geometry":{"type":"Point","coordinates":[-19.1266314,63.3988334]},"properties":{"dia":9,"orden":5,"nombre":"Dyrhólaey","categoria":"Interés","dormir":"Vík","notas":null}},{"type":"Feature","geometry":{"type":"Point","coordinates":[-19.0054737,63.4188166]},"properties":{"dia":9,"orden":6,"nombre":"Vík","categoria":"Dormir","dormir":"Vík","notas":null}},{"type":"Feature","geometry":{"type":"Point","coordinates":[-19.0054737,63.4188166]},"properties":{"dia":10,"orden":1,"nombre":"Vík","categoria":"Inicio","dormir":"Selfoss / Flúðir","notas":null}},{"type":"Feature","geometry":{"type":"Point","coordinates":[-19.511292,63.5321038]},"properties":{"dia":10,"orden":2,"nombre":"Skógafoss","categoria":"Interés","dormir":"Selfoss / Flúðir","notas":null}},{"type":"Feature","geometry":{"type":"Point","coordinates":[-19.4805098,63.5286852]},"properties":{"dia":10,"orden":3,"nombre":"Kvernufoss","categoria":"Interés","dormir":"Selfoss / Flúðir","notas":null}},{"type":"Feature","geometry":{"type":"Point","coordinates":[-19.9881686,63.6154571]},"properties":{"dia":10,"orden":4,"nombre":"Seljalandsfoss","categoria":"Interés","dormir":"Selfoss / Flúðir","notas":null}},{"type":"Feature","geometry":{"type":"Point","coordinates":[-19.9863395,63.6207562]},"properties":{"dia":10,"orden":5,"nombre":"Gljúfrabúi","categoria":"Interés","dormir":"Selfoss / Flúðir","notas":null}},{"type":"Feature","geometry":{"type":"Point","coordinates":[-21.0035319,63.9368093]},"properties":{"dia":10,"orden":6,"nombre":"Selfoss","categoria":"Dormir","dormir":"Selfoss / Flúðir","notas":null}},{"type":"Feature","geometry":{"type":"Point","coordinates":[-21.0035319,63.9368093]},"properties":{"dia":11,"orden":1,"nombre":"Selfoss / Flúðir","categoria":"Inicio","dormir":"Reikiavik","notas":null}},{"type":"Feature","geometry":{"type":"Point","coordinates":[-20.1191026,64.327316]},"properties":{"dia":11,"orden":2,"nombre":"Gullfoss","categoria":"Interés","dormir":"Reikiavik","notas":null}},{"type":"Feature","geometry":{"type":"Point","coordinates":[-20.2995104,64.3138382]},"properties":{"dia":11,"orden":3,"nombre":"Geysir","categoria":"Interés","dormir":"Reikiavik","notas":null}},{"type":"Feature","geometry":{"type":"Point","coordinates":[-21.0819412,64.2786082]},"properties":{"dia":11,"orden":4,"nombre":"Þingvellir","categoria":"Interés","dormir":"Reikiavik","notas":null}},{"type":"Feature","geometry":{"type":"Point","coordinates":[-21.9422367,64.145981]},"properties":{"dia":11,"orden":5,"nombre":"Reikiavik","categoria":"Dormir","dormir":"Reikiavik","notas":null}},{"type":"Feature","geometry":{"type":"Point","coordinates":[-21.9422367,64.145981]},"properties":{"dia":12,"orden":1,"nombre":"Reikiavik","categoria":"Ciudad","dormir":"Reikiavik","notas":"Día completo"}},{"type":"Feature","geometry":{"type":"Point","coordinates":[-21.9190279,64.1292462]},"properties":{"dia":12,"orden":2,"nombre":"Perlan","categoria":"Opcional","dormir":"Reikiavik","notas":null}},{"type":"Feature","geometry":{"type":"Point","coordinates":[-21.9464351,64.1164654]},"properties":{"dia":12,"orden":3,"nombre":"Sky Lagoon","categoria":"Opcional","dormir":"Reikiavik","notas":null}},{"type":"Feature","geometry":{"type":"Point","coordinates":[-21.9422367,64.145981]},"properties":{"dia":13,"orden":1,"nombre":"Reikiavik","categoria":"Inicio","dormir":"Vuelo","notas":null}},{"type":"Feature","geometry":{"type":"Point","coordinates":[-22.6266959,63.9850119]},"properties":{"dia":13,"orden":2,"nombre":"Aeropuerto Internacional de Keflavík","categoria":"Aeropuerto","dormir":"Vuelo","notas":"Vuelo 17:05"}}]}